{
  "type": "FeatureCollection",
  "features": [
    {
      "type": "Feature",
      "properties": {
        "norad_id": 43057,
        "name": "GSAT0217 (GALILEO 21)",
        "group": "gnss",
        "lat": -15.16796605940043,
        "lon": 57.317629427331326,
        "alt_km": 23231.498670141973,
        "timestamp": "2025-12-20T22:39:10.872889+00:00",
        "meta_object_name": "GSAT0217 (GALILEO 21)",
        "meta_object_id": "2017-079C",
        "meta_epoch": "2025-12-18T06:34:31.891008",
        "meta_mean_motion": 1.70474093,
        "meta_eccentricity": 0.0002798,
        "meta_inclination": 55.1266,
        "meta_ra_of_asc_node": 226.4833,
        "meta_arg_of_pericenter": 348.1017,
        "meta_mean_anomaly": 11.9971,
        "meta_ephemeris_type": 0,
        "meta_classification_type": "U",
        "meta_norad_cat_id": 43057,
        "meta_element_set_no": 999,
        "meta_rev_at_epoch": 4990,
        "meta_bstar": 0,
        "meta_mean_motion_dot": 6.1e-07,
        "meta_mean_motion_ddot": 0,
        "tle_line1": "1 43057U 17079C   25352.27398022  .00000061  00000+0  00000+0 0  9998",
        "tle_line2": "2 43057  55.1266 226.4833 0002798 348.1017  11.9971  1.70474093 49909"
      },
      "geometry": {
        "type": "Point",
        "coordinates": [
          57.317629427331326,
          -15.16796605940043
        ]
      }
    },
    {
      "type": "Feature",
      "properties": {
        "norad_id": 43058,
        "name": "GSAT0218 (GALILEO 22)",
        "group": "gnss",
        "lat": 47.26375307571372,
        "lon": -84.602269529311,
        "alt_km": 23220.082219179643,
        "timestamp": "2025-12-20T22:39:10.872902+00:00",
        "meta_object_name": "GSAT0218 (GALILEO 22)",
        "meta_object_id": "2017-079D",
        "meta_epoch": "2025-12-20T06:05:26.226528",
        "meta_mean_motion": 1.70474115,
        "meta_eccentricity": 0.00027735,
        "meta_inclination": 55.1262,
        "meta_ra_of_asc_node": 226.4264,
        "meta_arg_of_pericenter": 307.8467,
        "meta_mean_anomaly": 52.2377,
        "meta_ephemeris_type": 0,
        "meta_classification_type": "U",
        "meta_norad_cat_id": 43058,
        "meta_element_set_no": 999,
        "meta_rev_at_epoch": 4996,
        "meta_bstar": 0,
        "meta_mean_motion_dot": 7e-07,
        "meta_mean_motion_ddot": 0,
        "tle_line1": "1 43058U 17079D   25354.25377577  .00000070  00000+0  00000+0 0  9991",
        "tle_line2": "2 43058  55.1262 226.4264 0002773 307.8467  52.2377  1.70474115 49967"
      },
      "geometry": {
        "type": "Point",
        "coordinates": [
          -84.602269529311,
          47.26375307571372
        ]
      }
    },
    {
      "type": "Feature",
      "properties": {
        "norad_id": 43107,
        "name": "BEIDOU-3 M7 (C27)",
        "group": "gnss",
        "lat": -54.41164699089252,
        "lon": -146.07611385613998,
        "alt_km": 21541.38141104347,
        "timestamp": "2025-12-20T22:39:10.872912+00:00",
        "meta_object_name": "BEIDOU-3 M7 (C27)",
        "meta_object_id": "2018-003A",
        "meta_epoch": "2025-12-20T00:11:53.291616",
        "meta_mean_motion": 1.86232576,
        "meta_eccentricity": 0.00029046,
        "meta_inclination": 54.4901,
        "meta_ra_of_asc_node": 308.5614,
        "meta_arg_of_pericenter": 68.4199,
        "meta_mean_anomaly": 291.6021,
        "meta_ephemeris_type": 0,
        "meta_classification_type": "U",
        "meta_norad_cat_id": 43107,
        "meta_element_set_no": 999,
        "meta_rev_at_epoch": 5401,
        "meta_bstar": 0,
        "meta_mean_motion_dot": -7.3e-07,
        "meta_mean_motion_ddot": 0,
        "tle_line1": "1 43107U 18003A   25354.00825569 -.00000073  00000+0  00000+0 0  9990",
        "tle_line2": "2 43107  54.4901 308.5614 0002904  68.4199 291.6021  1.86232576 54010"
      },
      "geometry": {
        "type": "Point",
        "coordinates": [
          -146.07611385613998,
          -54.41164699089252
        ]
      }
    },
    {
      "type": "Feature",
      "properties": {
        "norad_id": 43108,
        "name": "BEIDOU-3 M8 (C28)",
        "group": "gnss",
        "lat": -42.339819680864906,
        "lon": -92.0649913113458,
        "alt_km": 21521.43195797776,
        "timestamp": "2025-12-20T22:39:10.872923+00:00",
        "meta_object_name": "BEIDOU-3 M8 (C28)",
        "meta_object_id": "2018-003B",
        "meta_epoch": "2025-12-19T22:52:37.832160",
        "meta_mean_motion": 1.8623113,
        "meta_eccentricity": 0.00046027,
        "meta_inclination": 54.4832,
        "meta_ra_of_asc_node": 308.5466,
        "meta_arg_of_pericenter": 277.9928,
        "meta_mean_anomaly": 81.9459,
        "meta_ephemeris_type": 0,
        "meta_classification_type": "U",
        "meta_norad_cat_id": 43108,
        "meta_element_set_no": 999,
        "meta_rev_at_epoch": 5402,
        "meta_bstar": 0,
        "meta_mean_motion_dot": -7.3e-07,
        "meta_mean_motion_ddot": 0,
        "tle_line1": "1 43108U 18003B   25353.95321565 -.00000073  00000+0  00000+0 0  9991",
        "tle_line2": "2 43108  54.4832 308.5466 0004602 277.9928  81.9459  1.86231130 54024"
      },
      "geometry": {
        "type": "Point",
        "coordinates": [
          -92.0649913113458,
          -42.339819680864906
        ]
      }
    },
    {
      "type": "Feature",
      "properties": {
        "norad_id": 43207,
        "name": "BEIDOU-3 M4 (C22)",
        "group": "gnss",
        "lat": 6.539535373859062,
        "lon": 73.4000604319514,
        "alt_km": 21515.874679197575,
        "timestamp": "2025-12-20T22:39:10.872933+00:00",
        "meta_object_name": "BEIDOU-3 M4 (C22)",
        "meta_object_id": "2018-018A",
        "meta_epoch": "2025-12-20T09:29:07.105632",
        "meta_mean_motion": 1.86231247,
        "meta_eccentricity": 0.0004167,
        "meta_inclination": 56.4917,
        "meta_ra_of_asc_node": 69.0512,
        "meta_arg_of_pericenter": 3.4046,
        "meta_mean_anomaly": 356.639,
        "meta_ephemeris_type": 0,
        "meta_classification_type": "U",
        "meta_norad_cat_id": 43207,
        "meta_element_set_no": 999,
        "meta_rev_at_epoch": 5341,
        "meta_bstar": 0,
        "meta_mean_motion_dot": -4.3e-07,
        "meta_mean_motion_ddot": 0,
        "tle_line1": "1 43207U 18018A   25354.39522113 -.00000043  00000+0  00000+0 0  9995",
        "tle_line2": "2 43207  56.4917  69.0512 0004167   3.4046 356.6390  1.86231247 53417"
      },
      "geometry": {
        "type": "Point",
        "coordinates": [
          73.4000604319514,
          6.539535373859062
        ]
      }
    },
    {
      "type": "Feature",
      "properties": {
        "norad_id": 43208,
        "name": "BEIDOU-3 M3 (C21)",
        "group": "gnss",
        "lat": -29.96422245812315,
        "lon": 46.63624366022529,
        "alt_km": 21512.566205759198,
        "timestamp": "2025-12-20T22:39:10.872943+00:00",
        "meta_object_name": "BEIDOU-3 M3 (C21)",
        "meta_object_id": "2018-018B",
        "meta_epoch": "2025-12-19T09:18:26.987040",
        "meta_mean_motion": 1.8623146,
        "meta_eccentricity": 0.0007021,
        "meta_inclination": 56.4904,
        "meta_ra_of_asc_node": 69.0885,
        "meta_arg_of_pericenter": 313.7803,
        "meta_mean_anomaly": 46.1968,
        "meta_ephemeris_type": 0,
        "meta_classification_type": "U",
        "meta_norad_cat_id": 43208,
        "meta_element_set_no": 999,
        "meta_rev_at_epoch": 5339,
        "meta_bstar": 0,
        "meta_mean_motion_dot": -5.3e-07,
        "meta_mean_motion_ddot": 0,
        "tle_line1": "1 43208U 18018B   25353.38781235 -.00000053  00000+0  00000+0 0  9997",
        "tle_line2": "2 43208  56.4904  69.0885 0007021 313.7803  46.1968  1.86231460 53393"
      },
      "geometry": {
        "type": "Point",
        "coordinates": [
          46.63624366022529,
          -29.96422245812315
        ]
      }
    },
    {
      "type": "Feature",
      "properties": {
        "norad_id": 43245,
        "name": "BEIDOU-3 M9 (C29)",
        "group": "gnss",
        "lat": 1.3929401390691825,
        "lon": 125.15995907085954,
        "alt_km": 21530.03529146968,
        "timestamp": "2025-12-20T22:39:10.872952+00:00",
        "meta_object_name": "BEIDOU-3 M9 (C29)",
        "meta_object_id": "2018-029A",
        "meta_epoch": "2025-12-19T14:29:50.131680",
        "meta_mean_motion": 1.86228397,
        "meta_eccentricity": 0.00015252,
        "meta_inclination": 54.3596,
        "meta_ra_of_asc_node": 306.2287,
        "meta_arg_of_pericenter": 290.8433,
        "meta_mean_anomaly": 69.1316,
        "meta_ephemeris_type": 0,
        "meta_classification_type": "U",
        "meta_norad_cat_id": 43245,
        "meta_element_set_no": 999,
        "meta_rev_at_epoch": 5255,
        "meta_bstar": 0,
        "meta_mean_motion_dot": -7.4e-07,
        "meta_mean_motion_ddot": 0,
        "tle_line1": "1 43245U 18029A   25353.60405245 -.00000074  00000+0  00000+0 0  9992",
        "tle_line2": "2 43245  54.3596 306.2287 0001525 290.8433  69.1316  1.86228397 52551"
      },
      "geometry": {
        "type": "Point",
        "coordinates": [
          125.15995907085954,
          1.3929401390691825
        ]
      }
    }
  ]
}